YAOGAN-30 03A           
1 43028U 17075A   26068.67863850  .00004172  00000+0  31199-3 0  9991
2 43028  34.9939 156.9097 0001741 176.2032 183.8689 15.02242801452275
STARLINK-5947           
1 55989U 23042D   26068.39547279 -.00000263  00000+0 -43891-5 0  9997
2 55989  43.0040  57.9230 0001391 275.2329  84.8355 15.02534572162869
