[{"OBJECT_NAME":"YAOGAN-30 03A","OBJECT_ID":"2017-075A","EPOCH":"2026-03-09T16:17:14.366400","MEAN_MOTION":15.02242801,"ECCENTRICITY":0.00017413,"INCLINATION":34.9939,"RA_OF_ASC_NODE":156.9097,"ARG_OF_PERICENTER":176.2032,"MEAN_ANOMALY":183.8689,"EPHEMERIS_TYPE":0,"CLASSIFICATION_TYPE":"U","NORAD_CAT_ID":43028,"ELEMENT_SET_NO":999,"REV_AT_EPOCH":45227,"BSTAR":0.00031198587,"MEAN_MOTION_DOT":4.172e-5,"MEAN_MOTION_DDOT":0},{"OBJECT_NAME":"STARLINK-5947","OBJECT_ID":"2023-042D","EPOCH":"2026-03-09T09:29:28.849056","MEAN_MOTION":15.02534572,"ECCENTRICITY":0.0001391,"INCLINATION":43.004,"RA_OF_ASC_NODE":57.923,"ARG_OF_PERICENTER":275.2329,"MEAN_ANOMALY":84.8355,"EPHEMERIS_TYPE":0,"CLASSIFICATION_TYPE":"U","NORAD_CAT_ID":55989,"ELEMENT_SET_NO":999,"REV_AT_EPOCH":16286,"BSTAR":-4.389085e-6,"MEAN_MOTION_DOT":-2.63e-6,"MEAN_MOTION_DDOT":0}]
